[
    {
        "Altitude(m)": 607897.6225063978,
        "Argument of Periapsis(deg)": 0.0,
        "Eccentricity": 0.0,
        "Inclination(deg)": 60.0,
        "Latitude(deg)": -14.292978899842456,
        "Longitude(deg)": 11.618784225724784,
        "Mean Anomaly(deg)": -16.363600000000012,
        "RAAN(deg)": 120.0,
        "Satellite Name": "Test1 549",
        "Satellite Number": 549,
        "Semi-Major Axis(m)": 6980739.136638005,
        "Time(s)": 0
    },
    {
        "Altitude(m)": 607750.8234220773,
        "Argument of Periapsis(deg)": 0.00010418945913296404,
        "Eccentricity": 0.0,
        "Inclination(deg)": 60.0,
        "Latitude(deg)": -13.758819722656346,
        "Longitude(deg)": 11.905852073951456,
        "Mean Anomaly(deg)": -15.743493854538157,
        "RAAN(deg)": 119.99957995086024,
        "Satellite Name": "Test1 549",
        "Satellite Number": 549,
        "Semi-Major Axis(m)": 6980739.136638005,
        "Time(s)": 10
    }
]